{
  "type": "FeatureCollection",
  "features": [
    {
      "type": "Feature",
      "properties": {
        "norad_id": 33913,
        "name": "COSMOS 2251 DEB",
        "group": "cosmos-2251-debris",
        "lat": -73.58407577703922,
        "lon": 111.26496318019754,
        "alt_km": 704.7858083643869,
        "timestamp": "2025-12-10T14:53:37.481081+00:00",
        "meta_object_name": "COSMOS 2251 DEB",
        "meta_object_id": "1993-036DS",
        "meta_epoch": "2025-12-10T00:55:42.093696",
        "meta_mean_motion": 14.48468658,
        "meta_eccentricity": 0.00481754,
        "meta_inclination": 74.0336,
        "meta_ra_of_asc_node": 188.7058,
        "meta_arg_of_pericenter": 291.7789,
        "meta_mean_anomaly": 189.1791,
        "meta_ephemeris_type": 0,
        "meta_classification_type": "U",
        "meta_norad_cat_id": 33913,
        "meta_element_set_no": 999,
        "meta_rev_at_epoch": 88418,
        "meta_bstar": 0.00070018854,
        "meta_mean_motion_dot": 2.637e-05,
        "meta_mean_motion_ddot": 0,
        "tle_line1": "1 33913U 93036DS  25344.03868164  .00002637  00000+0  70019-3 0  9991",
        "tle_line2": "2 33913  74.0336 188.7058 0048175 291.7789 189.1791 14.48468658884188"
      },
      "geometry": {
        "type": "Point",
        "coordinates": [
          111.26496318019754,
          -73.58407577703922
        ]
      }
    },
    {
      "type": "Feature",
      "properties": {
        "norad_id": 33914,
        "name": "COSMOS 2251 DEB",
        "group": "cosmos-2251-debris",
        "lat": 69.96813268857397,
        "lon": 147.12418757297488,
        "alt_km": 775.6115307538093,
        "timestamp": "2025-12-10T14:53:37.481090+00:00",
        "meta_object_name": "COSMOS 2251 DEB",
        "meta_object_id": "1993-036DT",
        "meta_epoch": "2025-12-10T06:00:42.228000",
        "meta_mean_motion": 13.7198224,
        "meta_eccentricity": 0.03013741,
        "meta_inclination": 74.0914,
        "meta_ra_of_asc_node": 19.1971,
        "meta_arg_of_pericenter": 122.8423,
        "meta_mean_anomaly": 313.4066,
        "meta_ephemeris_type": 0,
        "meta_classification_type": "U",
        "meta_norad_cat_id": 33914,
        "meta_element_set_no": 999,
        "meta_rev_at_epoch": 84047,
        "meta_bstar": 0.00061997627,
        "meta_mean_motion_dot": 7.58e-06,
        "meta_mean_motion_ddot": 0,
        "tle_line1": "1 33914U 93036DT  25344.25048875  .00000758  00000+0  61998-3 0  9993",
        "tle_line2": "2 33914  74.0914  19.1971 0301374 122.8423 313.4066 13.71982240840478"
      },
      "geometry": {
        "type": "Point",
        "coordinates": [
          147.12418757297488,
          69.96813268857397
        ]
      }
    },
    {
      "type": "Feature",
      "properties": {
        "norad_id": 33915,
        "name": "COSMOS 2251 DEB",
        "group": "cosmos-2251-debris",
        "lat": 69.2357122179587,
        "lon": 169.00348251143453,
        "alt_km": 701.3558235700593,
        "timestamp": "2025-12-10T14:53:37.481099+00:00",
        "meta_object_name": "COSMOS 2251 DEB",
        "meta_object_id": "1993-036DU",
        "meta_epoch": "2025-12-10T04:40:51.492288",
        "meta_mean_motion": 14.35073855,
        "meta_eccentricity": 0.01045429,
        "meta_inclination": 74.0442,
        "meta_ra_of_asc_node": 38.7706,
        "meta_arg_of_pericenter": 132.0087,
        "meta_mean_anomaly": 294.443,
        "meta_ephemeris_type": 0,
        "meta_classification_type": "U",
        "meta_norad_cat_id": 33915,
        "meta_element_set_no": 999,
        "meta_rev_at_epoch": 87721,
        "meta_bstar": 0.00056383579,
        "meta_mean_motion_dot": 1.685e-05,
        "meta_mean_motion_ddot": 0,
        "tle_line1": "1 33915U 93036DU  25344.19504042  .00001685  00000+0  56384-3 0  9993",
        "tle_line2": "2 33915  74.0442  38.7706 0104542 132.0087 294.4430 14.35073855877214"
      },
      "geometry": {
        "type": "Point",
        "coordinates": [
          169.00348251143453,
          69.2357122179587
        ]
      }
    },
    {
      "type": "Feature",
      "properties": {
        "norad_id": 33916,
        "name": "COSMOS 2251 DEB",
        "group": "cosmos-2251-debris",
        "lat": 33.453707085123575,
        "lon": 54.960371757365095,
        "alt_km": 1242.2359030393027,
        "timestamp": "2025-12-10T14:53:37.481108+00:00",
        "meta_object_name": "COSMOS 2251 DEB",
        "meta_object_id": "1993-036DV",
        "meta_epoch": "2025-12-10T04:30:50.424768",
        "meta_mean_motion": 13.68609103,
        "meta_eccentricity": 0.03254,
        "meta_inclination": 74.0529,
        "meta_ra_of_asc_node": 44.7812,
        "meta_arg_of_pericenter": 217.4647,
        "meta_mean_anomaly": 207.4343,
        "meta_ephemeris_type": 0,
        "meta_classification_type": "U",
        "meta_norad_cat_id": 33916,
        "meta_element_set_no": 999,
        "meta_rev_at_epoch": 83856,
        "meta_bstar": 0.00068352435,
        "meta_mean_motion_dot": 8.26e-06,
        "meta_mean_motion_ddot": 0,
        "tle_line1": "1 33916U 93036DV  25344.18808362  .00000826  00000+0  68352-3 0  9999",
        "tle_line2": "2 33916  74.0529  44.7812 0325400 217.4647 207.4343 13.68609103838562"
      },
      "geometry": {
        "type": "Point",
        "coordinates": [
          54.960371757365095,
          33.453707085123575
        ]
      }
    },
    {
      "type": "Feature",
      "properties": {
        "norad_id": 33917,
        "name": "COSMOS 2251 DEB",
        "group": "cosmos-2251-debris",
        "lat": 70.09752562180368,
        "lon": -106.03071734827193,
        "alt_km": 1130.0789643111893,
        "timestamp": "2025-12-10T14:53:37.481117+00:00",
        "meta_object_name": "COSMOS 2251 DEB",
        "meta_object_id": "1993-036DW",
        "meta_epoch": "2025-12-09T19:04:51.754080",
        "meta_mean_motion": 13.69351867,
        "meta_eccentricity": 0.03312322,
        "meta_inclination": 74.1068,
        "meta_ra_of_asc_node": 127.2217,
        "meta_arg_of_pericenter": 228.8261,
        "meta_mean_anomaly": 128.3855,
        "meta_ephemeris_type": 0,
        "meta_classification_type": "U",
        "meta_norad_cat_id": 33917,
        "meta_element_set_no": 999,
        "meta_rev_at_epoch": 83693,
        "meta_bstar": 0.0011346691,
        "meta_mean_motion_dot": 1.426e-05,
        "meta_mean_motion_ddot": 0,
        "tle_line1": "1 33917U 93036DW  25343.79504345  .00001426  00000+0  11347-2 0  9998",
        "tle_line2": "2 33917  74.1068 127.2217 0331232 228.8261 128.3855 13.69351867836936"
      },
      "geometry": {
        "type": "Point",
        "coordinates": [
          -106.03071734827193,
          70.09752562180368
        ]
      }
    },
    {
      "type": "Feature",
      "properties": {
        "norad_id": 33920,
        "name": "COSMOS 2251 DEB",
        "group": "cosmos-2251-debris",
        "lat": -46.783213587901386,
        "lon": 140.16079427404918,
        "alt_km": 700.5726916493495,
        "timestamp": "2025-12-10T14:53:37.481126+00:00",
        "meta_object_name": "COSMOS 2251 DEB",
        "meta_object_id": "1993-036DZ",
        "meta_epoch": "2025-12-09T21:22:37.466688",
        "meta_mean_motion": 14.58191466,
        "meta_eccentricity": 0.00383772,
        "meta_inclination": 74.0619,
        "meta_ra_of_asc_node": 303.8409,
        "meta_arg_of_pericenter": 310.7658,
        "meta_mean_anomaly": 49.0178,
        "meta_ephemeris_type": 0,
        "meta_classification_type": "U",
        "meta_norad_cat_id": 33920,
        "meta_element_set_no": 999,
        "meta_rev_at_epoch": 88073,
        "meta_bstar": 0.0030275677,
        "meta_mean_motion_dot": 0.0001411,
        "meta_mean_motion_ddot": 0,
        "tle_line1": "1 33920U 93036DZ  25343.89071142  .00014110  00000+0  30276-2 0  9993",
        "tle_line2": "2 33920  74.0619 303.8409 0038377 310.7658  49.0178 14.58191466880731"
      },
      "geometry": {
        "type": "Point",
        "coordinates": [
          140.16079427404918,
          -46.783213587901386
        ]
      }
    },
    {
      "type": "Feature",
      "properties": {
        "norad_id": 33922,
        "name": "COSMOS 2251 DEB",
        "group": "cosmos-2251-debris",
        "lat": 70.24968568285264,
        "lon": -155.44602110635375,
        "alt_km": 736.6339440474421,
        "timestamp": "2025-12-10T14:53:37.481136+00:00",
        "meta_object_name": "COSMOS 2251 DEB",
        "meta_object_id": "1993-036EB",
        "meta_epoch": "2025-12-09T22:40:46.467264",
        "meta_mean_motion": 14.49490495,
        "meta_eccentricity": 0.00232636,
        "meta_inclination": 74.0466,
        "meta_ra_of_asc_node": 153.0033,
        "meta_arg_of_pericenter": 263.9368,
        "meta_mean_anomaly": 250.3701,
        "meta_ephemeris_type": 0,
        "meta_classification_type": "U",
        "meta_norad_cat_id": 33922,
        "meta_element_set_no": 999,
        "meta_rev_at_epoch": 88537,
        "meta_bstar": 0.00064276731,
        "meta_mean_motion_dot": 2.444e-05,
        "meta_mean_motion_ddot": 0,
        "tle_line1": "1 33922U 93036EB  25343.94498226  .00002444  00000+0  64277-3 0  9993",
        "tle_line2": "2 33922  74.0466 153.0033 0023263 263.9368 250.3701 14.49490495885374"
      },
      "geometry": {
        "type": "Point",
        "coordinates": [
          -155.44602110635375,
          70.24968568285264
        ]
      }
    }
  ]
}